{"type":"FeatureCollection","features":[{"type":"Feature","properties":{"line_name":"JR京都線"},"geometry":{"type":"LineString","coordinates":[[135.495188,34.702398],[135.501852,34.734136],[135.503915,34.73938],[135.523642,34.763209],[135.541613,34.776812],[135.551512,34.791502],[135.56208,34.815091],[135.577778,34.828611],[135.59336,34.837729],[135.617016,34.8512],[135.663385,34.881337],[135.679124,34.892257],[135.700882,34.923483],[135.709804,34.954838],[135.710391,34.964814],[135.731702,34.981077],[135.757748,34.985465]]}},{"type":"Feature","properties":{"line_name":"JR神戸線"},"geometry":{"type":"LineString","coordinates":[[135.495188,34.702398],[135.468843,34.71271],[135.431685,34.731791],[135.399571,34.737875],[135.374426,34.739052],[135.348703,34.738985],[135.331093,34.739079],[135.307102,34.734207],[135.292788,34.730616],[135.27699,34.726661],[135.261859,34.719595],[135.238588,34.714945],[135.225167,34.708667],[135.216578,34.705918],[135.195058,34.694766],[135.187401,34.689602],[135.178221,34.679453],[135.164706,34.668343],[135.145193,34.657525],[135.135275,34.651667],[135.126616,34.647185],[135.112814,34.642292],[135.083361,34.633507],[135.053872,34.629252],[135.034373,34.63302],[135.017485,34.644196],[134.992512,34.649084],[134.960151,34.66591],[134.939194,34.681914],[134.906028,34.696401],[134.888921,34.720482],[134.869244,34.745857],[134.839447,34.767666],[134.812158,34.784795],[134.769838,34.793304],[134.753309,34.805544],[134.735486,34.816944],[134.712472,34.824361],[134.690769,34.827659]]}},{"type":"Feature","properties":{"line_name":"JR宝塚線"},"geometry":{"type":"LineString","coordinates":[[135.495188,34.702398],[135.468843,34.71271],[135.431685,34.731791],[135.424948,34.751028],[135.422598,34.764086],[135.421686,34.78065],[135.419326,34.801349],[135.409901,34.824857],[135.373993,34.816627],[135.340399,34.811562],[135.325058,34.819159],[135.308871,34.827125],[135.305838,34.855316],[135.255528,34.867303],[135.22979,34.888787],[135.20861,34.910183],[135.191267,34.928424],[135.155998,34.947482],[135.155533,34.977041],[135.1524,34.996887],[135.154808,35.021932],[135.174875,35.037697],[135.177452,35.056223]]}},{"type":"Feature","properties":{"line_name":"大阪環状線"},"geometry":{"type":"LineString","coordinates":[[135.495188,34.702398],[135.486563,34.697167],[135.474837,34.689069],[135.466779,34.68269],[135.462348,34.669403],[135.479932,34.665582],[135.48924,34.658608],[135.492975,34.654156],[135.501076,34.650149],[135.514124,34.647243],[135.523437,34.647957],[135.527908,34.658453],[135.530133,34.665264],[135.532901,34.673559],[135.533996,34.680412],[135.534482,34.68858],[135.534253,34.696047],[135.520944,34.704976],[135.512233,34.704923],[135.495188,34.702398]]}},{"type":"Feature","properties":{"line_name":"大和路線"},"geometry":{"type":"LineString","coordinates":[[135.869609,34.752575],[135.824794,34.735962],[135.810252,34.710431],[135.818935,34.680482],[135.790441,34.648335],[135.763488,34.622226],[135.738604,34.601377],[135.704005,34.597448],[135.687484,34.588867],[135.662956,34.574005],[135.638645,34.57147],[135.62341,34.586681],[135.615998,34.600248],[135.597136,34.617265],[135.583988,34.622558],[135.566939,34.626888],[135.551612,34.630842],[135.537802,34.638056],[135.514124,34.647243],[135.501076,34.650149],[135.492975,34.654156],[135.495265,34.666438]]}},{"type":"Feature","properties":{"line_name":"阪和線"},"geometry":{"type":"LineString","coordinates":[[135.514124,34.647243],[135.523765,34.638411],[135.52086,34.625551],[135.517088,34.617999],[135.512769,34.6109],[135.50667,34.601873],[135.503034,34.593113],[135.502423,34.585303],[135.498644,34.577765],[135.492743,34.566319],[135.488934,34.558322],[135.478026,34.549484],[135.468108,34.542287],[135.458734,34.531674],[135.451171,34.522534],[135.441506,34.510671],[135.432895,34.500183],[135.423891,34.48794],[135.405384,34.46574],[135.39683,34.457344],[135.385859,34.449341],[135.373055,34.440051],[135.358762,34.427379],[135.350138,34.416744],[135.341086,34.406048],[135.331309,34.39075],[135.319574,34.381865],[135.299076,34.372405],[135.281242,34.360289],[135.263238,34.342538],[135.269741,34.325534],[135.246179,34.269213],[135.207116,34.26244],[135.190223,34.242894],[135.191454,34.232436]]}},{"type":"Feature","properties":{"line_name":"関西空港線"},"geometry":{"type":"LineString","coordinates":[[135.331309,34.39075],[135.300117,34.410308],[135.243419,34.436]]}},{"type":"Feature","properties":{"line_name":"奈良線"},"geometry":{"type":"LineString","coordinates":[[135.757748,34.985465],[135.769778,34.981371],[135.770707,34.966758],[135.770191,34.956782],[135.771673,34.932647],[135.797335,34.932843],[135.798901,34.924962],[135.803665,34.912831],[135.800629,34.890437],[135.781914,34.89304],[135.780707,34.874314],[135.781071,34.855536],[135.789801,34.842351],[135.800111,34.828127],[135.806,34.818009],[135.807022,34.800108],[135.816141,34.774705],[135.821225,34.750447],[135.824794,34.735962],[135.818935,34.680482]]}},{"type":"Feature","properties":{"line_name":"おおさか東線"},"geometry":{"type":"LineString","coordinates":[[135.501852,34.734136],[135.51125,34.749444],[135.5198061,34.740767],[135.530694,34.723472],[135.5413887,34.7072157],[135.544995,34.692769],[135.563296,34.688103],[135.572362,34.678764],[135.572255,34.664717],[135.572421,34.658372],[135.570168,34.649516],[135.567028,34.638333],[135.568588,34.626861],[135.583988,34.622558]]}},{"type":"Feature","properties":{"line_name":"学研都市線"},"geometry":{"type":"LineString","coordinates":[[135.824794,34.735962],[135.803507,34.737762],[135.792107,34.76017],[135.788574,34.780579],[135.784578,34.798334],[135.778633,34.805124],[135.768664,34.821114],[135.749874,34.830785],[135.727617,34.833288],[135.713091,34.825938],[135.702748,34.814466],[135.697946,34.801373],[135.684592,34.776501],[135.663455,34.767346],[135.653276,34.755491],[135.645232,34.745762],[135.639297,34.730128],[135.636942,34.718334],[135.621496,34.706238],[135.597679,34.698847],[135.581386,34.692423],[135.563296,34.688103],[135.544995,34.692769],[135.534253,34.696047]]}},{"type":"Feature","properties":{"line_name":"阪急京都線"},"geometry":{"type":"LineString","coordinates":[[135.498312,34.705517],[135.48248,34.720226],[135.499507,34.725656],[135.510186,34.731048],[135.516527,34.738827],[135.533114,34.750873],[135.533853,34.757942],[135.545657,34.775454],[135.553715,34.786409],[135.565152,34.802351],[135.575815,34.816472],[135.58492,34.827257],[135.592721,34.835207],[135.623265,34.849905],[135.661629,34.872018],[135.667853,34.877745],[135.681637,34.891485],[135.688611,34.913333],[135.69233,34.924791],[135.702657,34.939892],[135.704646,34.953885],[135.703096,34.964081],[135.703302,34.979522],[135.718462,34.992459],[135.732447,35.003619],[135.748756,35.003587],[135.759108,35.003665],[135.769463,35.003765]]}},{"type":"Feature","properties":{"line_name":"阪急神戸線"},"geometry":{"type":"LineString","coordinates":[[135.498312,34.705517],[135.493011,34.709745],[135.48248,34.720226],[135.472967,34.732249],[135.448186,34.751905],[135.41585,34.752826],[135.393821,34.751587],[135.356702,34.745951],[135.328207,34.742246],[135.300651,34.736338],[135.275937,34.729171],[135.251803,34.724508],[135.234371,34.719891],[135.218553,34.710354],[135.205396,34.70299],[135.192862,34.693136]]}},{"type":"Feature","properties":{"line_name":"阪急宝塚線"},"geometry":{"type":"LineString","coordinates":[[135.498312,34.705517],[135.493011,34.709745],[135.48248,34.720226],[135.483128,34.737254],[135.475095,34.750333],[135.475111,34.763024],[135.46777,34.771078],[135.465103,34.778949],[135.462073,34.787248],[135.449238,34.794365],[135.445487,34.808254],[135.425797,34.821544],[135.413393,34.827654],[135.402946,34.827357],[135.388503,34.821918],[135.369235,34.819518],[135.361339,34.815863],[135.35352,34.811271],[135.341054,34.810469]]}},{"type":"Feature","properties":{"line_name":"阪急千里線"},"geometry":{"type":"LineString","coordinates":[[135.510757,34.710265],[135.511478,34.728437],[135.516527,34.738827],[135.519893,34.746474],[135.517366,34.759675],[135.509005,34.764588],[135.506136,34.770984],[135.505466,34.778903],[135.508794,34.792393],[135.515692,34.804237],[135.51111,34.81987]]}},{"type":"Feature","properties":{"line_name":"阪急嵐山線"},"geometry":{"type":"LineString","coordinates":[[135.703302,34.979522],[135.696069,34.990201],[135.688214,35.000331],[135.681603,35.010315]]}},{"type":"Feature","properties":{"line_name":"阪急今津線"},"geometry":{"type":"LineString","coordinates":[[135.351573,34.732015],[135.354702,34.73715],[135.356702,34.745951],[135.358221,34.757086],[135.359757,34.76676],[135.356854,34.775117],[135.352282,34.789396],[135.350707,34.797181],[135.345918,34.804256],[135.341054,34.810469]]}},{"type":"Feature","properties":{"line_name":"阪急伊丹線"},"geometry":{"type":"LineString","coordinates":[[135.41585,34.752826],[135.415532,34.764817],[135.415479,34.772574],[135.413618,34.779875]]}},{"type":"Feature","properties":{"line_name":"阪神本線"},"geometry":{"type":"LineString","coordinates":[[135.496745,34.701242],[135.488205,34.696047],[135.47606,34.694432],[135.465249,34.696159],[135.45823,34.704466],[135.445361,34.712245],[135.43884,34.718272],[135.425549,34.716583],[135.417309,34.718634],[135.404604,34.718232],[135.395044,34.71776],[135.383654,34.718154],[135.37036,34.719684],[135.363157,34.723987],[135.356811,34.726975],[135.351568,34.730953],[135.337759,34.736858],[135.328929,34.734344],[135.315481,34.731616],[135.303969,34.728052],[135.291347,34.722583],[135.28062,34.71695],[135.26924,34.71262],[135.261655,34.713025],[135.25569,34.714895],[135.249329,34.71327],[135.240565,34.710573],[135.231055,34.707671],[135.224639,34.705782],[135.217962,34.704065],[135.207968,34.699513],[135.195104,34.693502],[135.187503,34.689422]]}},{"type":"Feature","properties":{"line_name":"阪神なんば線"},"geometry":{"type":"LineString","coordinates":[[135.499144,34.667113],[135.486612,34.668559],[135.478313,34.670266],[135.474483,34.673412],[135.465653,34.682889],[135.457817,34.68546],[135.451559,34.689256],[135.442692,34.699791],[135.436921,34.707173],[135.425549,34.716583],[135.417309,34.718634]]}},{"type":"Feature","properties":{"line_name":"阪神武庫川線"},"geometry":{"type":"LineString","coordinates":[[135.383654,34.718154],[135.379065,34.712646],[135.378049,34.709046],[135.374757,34.704894]]}},{"type":"Feature","properties":{"line_name":"京阪本線・鴨東線"},"geometry":{"type":"LineString","coordinates":[[135.501648,34.692456],[135.50683,34.691799],[135.516633,34.6902],[135.532182,34.697052],[135.543356,34.707223],[135.546953,34.71252],[135.551686,34.719419],[135.554741,34.723966],[135.557463,34.727868],[135.559763,34.730577],[135.565273,34.735323],[135.5759,34.737309],[135.583224,34.73809],[135.591484,34.73994],[135.602667,34.742962],[135.61118,34.747453],[135.620603,34.763893],[135.630927,34.784613],[135.630124,34.797745],[135.639465,34.811526],[135.648814,34.816171],[135.653969,34.829178],[135.665584,34.843868],[135.675352,34.861977],[135.684251,34.882042],[135.69996,34.884651],[135.718435,34.904416],[135.760174,34.926875],[135.764368,34.932599],[135.765457,34.938879],[135.769126,34.948206],[135.770191,34.956782],[135.770154,34.964247],[135.769279,34.968966],[135.770004,34.973632],[135.769998,34.981351],[135.767846,34.989322],[135.768378,34.995691],[135.771961,35.003689],[135.772274,35.009114],[135.772161,35.017669],[135.77244,35.029613]]}},{"type":"Feature","properties":{"line_name":"京阪中之島線"},"geometry":{"type":"LineString","coordinates":[[135.487373,34.691504],[135.49542,34.693916],[135.500412,34.694296],[135.506594,34.692829],[135.516633,34.6902]]}},{"type":"Feature","properties":{"line_name":"京阪交野線"},"geometry":{"type":"LineString","coordinates":[[135.648814,34.816171],[135.65663,34.813649],[135.659755,34.807696],[135.664221,34.801828],[135.669868,34.794376],[135.675595,34.786924],[135.685617,34.77386],[135.686569,34.767671]]}},{"type":"Feature","properties":{"line_name":"京阪宇治線"},"geometry":{"type":"LineString","coordinates":[[135.760174,34.926875],[135.768642,34.928103],[135.783683,34.931056],[135.793322,34.932017],[135.796047,34.925859],[135.802656,34.914335],[135.806339,34.898976],[135.806229,34.894678]]}},{"type":"Feature","properties":{"line_name":"近鉄奈良線"},"geometry":{"type":"LineString","coordinates":[[135.499144,34.667113],[135.505818,34.666949],[135.522189,34.665513],[135.530605,34.665282],[135.549917,34.664788],[135.563516,34.664092],[135.573179,34.664276],[135.5815,34.66394],[135.589475,34.663721],[135.608315,34.66311],[135.618347,34.662713],[135.626808,34.662388],[135.639143,34.66196],[135.648067,34.669579],[135.651086,34.675181],[135.654996,34.684739],[135.698006,34.693082],[135.710488,34.691729],[135.734825,34.694229],[135.749713,34.697018],[135.761331,34.69796],[135.783169,34.69358],[135.810744,34.685434],[135.827472,34.684323]]}},{"type":"Feature","properties":{"line_name":"近鉄京都線"},"geometry":{"type":"LineString","coordinates":[[135.756442,34.984726],[135.752553,34.979967],[135.752413,34.97398],[135.752625,34.965135],[135.756091,34.956825],[135.761479,34.946054],[135.766262,34.938299],[135.765537,34.933349],[135.769681,34.914924],[135.781914,34.89304],[135.77899,34.882208],[135.777024,34.874351],[135.774847,34.864943],[135.772011,34.853275],[135.772922,34.840201],[135.772805,34.820492],[135.778638,34.808293],[135.785905,34.798435],[135.787391,34.791453],[135.789568,34.78047],[135.792657,34.759953],[135.795996,34.746641],[135.793794,34.737678],[135.791839,34.723494],[135.784524,34.701496],[135.783169,34.69358]]}},{"type":"Feature","properties":{"line_name":"近鉄大阪線"},"geometry":{"type":"LineString","coordinates":[[135.522189,34.665513],[135.530605,34.665282],[135.549917,34.664788],[135.563516,34.664092],[135.571777,34.658224],[135.577612,34.64988],[135.583412,34.641337],[135.590548,34.634593],[135.603591,34.62978],[135.619317,34.627892],[135.624403,34.619376],[135.626308,34.609747],[135.626331,34.595176],[135.627331,34.588246],[135.629064,34.580213],[135.635684,34.566754],[135.645139,34.555366],[135.667778,34.553688],[135.68811,34.546511],[135.704033,34.541478],[135.717937,34.534763],[135.733036,34.526125],[135.742264,34.519757],[135.761507,34.520601],[135.772806,34.519585],[135.791484,34.513208],[135.815071,34.512409],[135.829756,34.512851],[135.846516,34.51347],[135.868933,34.51602],[135.906453,34.526889],[135.954747,34.529887],[136.015252,34.566109],[136.035851,34.578571],[136.073897,34.599467],[136.095753,34.621612],[136.112639,34.641297],[136.133022,34.662989],[136.152854,34.673639],[136.177763,34.672848],[136.205088,34.682695],[136.237988,34.676518],[136.321627,34.675599],[136.348576,34.67468],[136.368896,34.664058],[136.408034,34.656783],[136.422363,34.656604],[136.436692,34.656425],[136.477894,34.635028]]}},{"type":"Feature","properties":{"line_name":"近鉄南大阪線"},"geometry":{"type":"LineString","coordinates":[[135.514529,34.645643],[135.524237,34.641166],[135.528934,34.632184],[135.531148,34.626226],[135.533078,34.616969],[135.532942,34.605926],[135.535509,34.585823],[135.539415,34.577824],[135.546189,34.575232],[135.557097,34.575563],[135.572751,34.573591],[135.584503,34.571602],[135.594046,34.571669],[135.615622,34.571603],[135.620399,34.56834],[135.609092,34.55416],[135.621999,34.545751],[135.637634,34.532974],[135.685974,34.53907],[135.69414,34.532104],[135.705897,34.516412],[135.710869,34.511302],[135.721404,34.508577],[135.742119,34.507145],[135.754749,34.498077],[135.764876,34.493577],[135.781372,34.486187],[135.79434,34.483987]]}},{"type":"Feature","properties":{"line_name":"近鉄けいはんな線"},"geometry":{"type":"LineString","coordinates":[[135.591919,34.678747],[135.604912,34.678627],[135.624135,34.680294],[135.640859,34.680133],[135.698006,34.693082],[135.716686,34.720345],[135.723038,34.724789],[135.752424,34.726518]]}},{"type":"Feature","properties":{"line_name":"南海本線"},"geometry":{"type":"LineString","coordinates":[[135.501949,34.66357],[135.500302,34.650429],[135.496673,34.636847],[135.494388,34.628291],[135.491763,34.61833],[135.490124,34.612431],[135.487011,34.605348],[135.480556,34.592313],[135.468754,34.581958],[135.459975,34.570489],[135.453178,34.559377],[135.449129,34.551764],[135.444629,34.541243],[135.44178,34.534546],[135.432723,34.521439],[135.422779,34.514523],[135.414702,34.508932],[135.406642,34.503235],[135.397668,34.488645],[135.392077,34.477688],[135.384908,34.467917],[135.37819,34.460304],[135.37031,34.456437],[135.357485,34.445499],[135.345275,34.432717],[135.338366,34.426479],[135.330742,34.41983],[135.316724,34.411153],[135.299484,34.399346],[135.28976,34.391397],[135.276939,34.384569],[135.261362,34.374184],[135.240172,34.36103],[135.231857,34.351323],[135.212634,34.341323],[135.178159,34.331229],[135.160977,34.323986],[135.151019,34.290619],[135.166538,34.236925]]}},{"type":"Feature","properties":{"line_name":"南海高野線"},"geometry":{"type":"LineString","coordinates":[[135.501949,34.66357],[135.50153,34.655137],[135.500302,34.650429],[135.498986,34.64561],[135.496673,34.636847],[135.494388,34.628291],[135.498406,34.622332],[135.497587,34.6133],[135.496957,34.606284],[135.496888,34.600188],[135.491025,34.589319],[135.485062,34.575878],[135.492668,34.565259],[135.498751,34.560577],[135.504454,34.556232],[135.513148,34.550235],[135.526491,34.542322],[135.535094,34.537125],[135.543177,34.522949],[135.548137,34.516725],[135.557234,34.504643],[135.559306,34.495324],[135.5622,34.479582],[135.566311,34.468894],[135.573075,34.450994],[135.57134,34.43672],[135.577172,34.424697],[135.590199,34.411493],[135.595504,34.397558],[135.599904,34.366288],[135.603207,34.355292],[135.602085,34.338016],[135.614703,34.318496]]}},{"type":"Feature","properties":{"line_name":"南海空港線"},"geometry":{"type":"LineString","coordinates":[[135.316724,34.411153],[135.300117,34.410308],[135.243601,34.435848]]}},{"type":"Feature","properties":{"line_name":"御堂筋線"},"geometry":{"type":"LineString","coordinates":[[135.497106,34.758755],[135.498496,34.741052],[135.498558,34.732919],[135.498579,34.726584],[135.496938,34.711191],[135.497496,34.703765],[135.500972,34.692289],[135.498982,34.681936],[135.50033,34.675012],[135.500277,34.666316],[135.4978,34.656075],[135.504413,34.648815],[135.51374,34.646554],[135.516954,34.633564],[135.515152,34.621627],[135.513761,34.609873],[135.512747,34.598821],[135.516469,34.581873],[135.514864,34.567447],[135.50579,34.55607]]}},{"type":"Feature","properties":{"line_name":"谷町線"},"geometry":{"type":"LineString","coordinates":[[135.578241,34.749476],[135.563851,34.737973],[135.55493,34.731376],[135.54913,34.723808],[135.545797,34.715197],[135.538137,34.708951],[135.525799,34.709087],[135.511283,34.710776],[135.505245,34.706864],[135.49969,34.701031],[135.511078,34.697699],[135.517371,34.689457],[135.517253,34.681914],[135.516912,34.674923],[135.515801,34.667146],[135.514134,34.658536],[135.51316,34.647675],[135.51198,34.642374],[135.518024,34.636039],[135.525515,34.628215],[135.533036,34.621507],[135.548887,34.621078],[135.551633,34.609376],[135.565801,34.609012],[135.573853,34.602432],[135.582464,34.597433]]}},{"type":"Feature","properties":{"line_name":"四つ橋線"},"geometry":{"type":"LineString","coordinates":[[135.495802,34.699642],[135.496388,34.691355],[135.498982,34.681936],[135.496783,34.674112],[135.497539,34.666402],[135.4978,34.656075],[135.496636,34.644371],[135.493859,34.634372],[135.490527,34.624096],[135.478861,34.621318],[135.471879,34.609269]]}},{"type":"Feature","properties":{"line_name":"中央線"},"geometry":{"type":"LineString","coordinates":[[135.4103,34.6575],[135.412472,34.642888],[135.434336,34.65388],[135.448863,34.661035],[135.462381,34.668547],[135.473749,34.675492],[135.486297,34.681483],[135.498982,34.681936],[135.506912,34.681867],[135.517253,34.681914],[135.532687,34.681508],[135.545242,34.680756],[135.557186,34.67909],[135.573113,34.678747],[135.591919,34.678747]]}},{"type":"Feature","properties":{"line_name":"堺筋線"},"geometry":{"type":"LineString","coordinates":[[135.510757,34.710265],[135.5108,34.703809],[135.511078,34.697699],[135.506634,34.691588],[135.506912,34.681867],[135.506357,34.674645],[135.506635,34.667146],[135.505575,34.65508],[135.504413,34.648815],[135.496673,34.636847]]}},{"type":"Feature","properties":{"line_name":"千日前線"},"geometry":{"type":"LineString","coordinates":[[135.476031,34.694384],[135.476187,34.689607],[135.486297,34.681483],[135.487223,34.675256],[135.488839,34.668427],[135.499599,34.667205],[135.506635,34.667146],[135.515801,34.667146],[135.529393,34.666032],[135.544274,34.668617],[135.553836,34.668158],[135.556245,34.661531],[135.554964,34.652982],[135.553298,34.643261]]}},{"type":"Feature","properties":{"line_name":"長堀鶴見緑地線"},"geometry":{"type":"LineString","coordinates":[[135.478882,34.665855],[135.479415,34.670757],[135.487223,34.675256],[135.493575,34.675442],[135.50033,34.675012],[135.506357,34.674645],[135.512467,34.675479],[135.516912,34.674923],[135.530251,34.674662],[135.533481,34.681861],[135.529688,34.692144],[135.529962,34.696885],[135.547709,34.700368],[135.560044,34.701913],[135.57274,34.703532],[135.580239,34.710754],[135.59246,34.716865]]}},{"type":"Feature","properties":{"line_name":"今里筋線"},"geometry":{"type":"LineString","coordinates":[[135.54732084274292,34.75982037447907],[135.547085,34.752214],[135.544408,34.743805],[135.55493,34.731376],[135.563149,34.721379],[135.558296,34.715197],[135.546353,34.712975],[135.547709,34.700368],[135.545234,34.692605],[135.545242,34.680756],[135.544274,34.668617]]}}]}